[{"OBJECT_NAME":"STARLINK-1958","OBJECT_ID":"2021-009M","EPOCH":"2026-03-09T21:30:00.106848","MEAN_MOTION":15.67474201,"ECCENTRICITY":0.00053899,"INCLINATION":53.0457,"RA_OF_ASC_NODE":320.4715,"ARG_OF_PERICENTER":347.5018,"MEAN_ANOMALY":12.5863,"EPHEMERIS_TYPE":0,"CLASSIFICATION_TYPE":"U","NORAD_CAT_ID":47559,"ELEMENT_SET_NO":999,"REV_AT_EPOCH":28167,"BSTAR":0.00087609407,"MEAN_MOTION_DOT":0.00097472,"MEAN_MOTION_DDOT":0},{"OBJECT_NAME":"STARLINK-11298 [DTC]","OBJECT_ID":"2024-171M","EPOCH":"2026-03-09T13:20:56.959584","MEAN_MOTION":15.69705614,"ECCENTRICITY":0.0001541,"INCLINATION":53.1602,"RA_OF_ASC_NODE":177.218,"ARG_OF_PERICENTER":111.7181,"MEAN_ANOMALY":248.4001,"EPHEMERIS_TYPE":0,"CLASSIFICATION_TYPE":"U","NORAD_CAT_ID":61211,"ELEMENT_SET_NO":999,"REV_AT_EPOCH":8437,"BSTAR":4.1992e-6,"MEAN_MOTION_DOT":-8.1e-7,"MEAN_MOTION_DDOT":0}]
