STARLINK-1958           
1 47559U 21009M   26068.89583456  .00097472  00000+0  87609-3 0  9993
2 47559  53.0457 320.4715 0005390 347.5018  12.5863 15.67474201281679
STARLINK-11298 [DTC]    
1 61211U 24171M   26068.55621481 -.00000081  00000+0  41992-5 0  9999
2 61211  53.1602 177.2180 0001541 111.7181 248.4001 15.69705614 84372
